{
  "norad_id": 47838,
  "name": "STARLINK-2429",
  "history": [
    {
      "epoch": "2026-03-28T21:02:51.273312Z",
      "apogee_km": 476.11739316549756,
      "perigee_km": 474.375263123482,
      "latitude_deg": 1.4147614334327285e-05,
      "longitude_deg": 14.310742595367199,
      "height_km": 475.98402903202526,
      "semi_major_axis_km": 6853.3833281444895,
      "eccentricity": 0.0001271,
      "inclination_deg": 53.1595,
      "raan_deg": 156.3155,
      "arg_perigee_deg": 79.3925,
      "mean_anomaly_deg": 280.7219,
      "mean_motion_rev_day": 15.30189531
    }
  ]
}