{"fetched_at":"2026-03-29T16:36:15Z","count":15609,"tles":[{"name":"STARLINK-2429","line1":"1 47838U 21018BD  26087.87698233  .00010457  00000+0  36479-3 0  9999","line2":"2 47838  53.1595 156.3155 0001271  79.3925 280.7219 15.30189531279623","category":"Starlink"}]}